{"type": "FeatureCollection", "features": [{"type": "Feature", "geometry": {"type": "Point", "coordinates": [77.0405, 23.2599]}, "properties": {"state": "Madhya Pradesh", "asset_type": "agriculture", "name": "madhya_pradesh_agriculture_0", "area_ha": null, "description": "Raisen District Agricultural Land"}}, {"type": "Feature", "geometry": {"type": "Point", "coordinates": [75.6499, 24.3313]}, "properties": {"state": "Madhya Pradesh", "asset_type": "agriculture", "name": "madhya_pradesh_agriculture_1", "area_ha": null, "description": "Garoth Agricultural Area"}}, {"type": "Feature", "geometry": {"type": "Point", "coordinates": [79.0328, 22.702]}, "properties": {"state": "Madhya Pradesh", "asset_type": "agriculture", "name": "madhya_pradesh_agriculture_2", "area_ha": null, "description": "Sanchi Agricultural Area"}}, {"type": "Feature", "geometry": {"type": "Point", "coordinates": [76.0622, 23.5333]}, "properties": {"state": "Madhya Pradesh", "asset_type": "agriculture", "name": "madhya_pradesh_agriculture_3", "area_ha": null, "description": "Ajaigarh Agricultural Area"}}, {"type": "Feature", "geometry": {"type": "Point", "coordinates": [80.1343, 24.2367]}, "properties": {"state": "Madhya Pradesh", "asset_type": "agriculture", "name": "madhya_pradesh_agriculture_4", "area_ha": null, "description": "Agar Agricultural Land"}}]}