{"type": "FeatureCollection", "features": [{"type": "Feature", "geometry": {"type": "Point", "coordinates": [80.9619, 23.6994]}, "properties": {"state": "Madhya Pradesh", "asset_type": "forest", "name": "madhya_pradesh_forest_0", "area_ha": null, "description": "Bandhavgarh National Park"}}, {"type": "Feature", "geometry": {"type": "Point", "coordinates": [78.4164, 23.1757]}, "properties": {"state": "Madhya Pradesh", "asset_type": "forest", "name": "madhya_pradesh_forest_1", "area_ha": null, "description": "Panna Biosphere Reserve"}}, {"type": "Feature", "geometry": {"type": "Point", "coordinates": [81.3184, 22.7908]}, "properties": {"state": "Madhya Pradesh", "asset_type": "forest", "name": "madhya_pradesh_forest_2", "area_ha": null, "description": "Kanha National Park"}}, {"type": "Feature", "geometry": {"type": "Point", "coordinates": [77.896, 22.1348]}, "properties": {"state": "Madhya Pradesh", "asset_type": "forest", "name": "madhya_pradesh_forest_3", "area_ha": null, "description": "Satpura National Park"}}, {"type": "Feature", "geometry": {"type": "Point", "coordinates": [79.3799, 22.9542]}, "properties": {"state": "Madhya Pradesh", "asset_type": "forest", "name": "madhya_pradesh_forest_4", "area_ha": null, "description": "Bori Wildlife Sanctuary"}}]}