{"type": "FeatureCollection", "features": [{"type": "Feature", "geometry": {"type": "Point", "coordinates": [75.65, 24.3281]}, "properties": {"state": "Madhya Pradesh", "asset_type": "water", "name": "madhya_pradesh_water_0", "area_ha": null, "description": "Gandhi Sagar Lake"}}, {"type": "Feature", "geometry": {"type": "Point", "coordinates": [80.4285, 23.1599]}, "properties": {"state": "Madhya Pradesh", "asset_type": "water", "name": "madhya_pradesh_water_1", "area_ha": null, "description": "Gughra Reservoir"}}, {"type": "Feature", "geometry": {"type": "Point", "coordinates": [75.1724, 26.5578]}, "properties": {"state": "Madhya Pradesh", "asset_type": "water", "name": "madhya_pradesh_water_2", "area_ha": null, "description": "Fatehabad Reservoir"}}, {"type": "Feature", "geometry": {"type": "Point", "coordinates": [79.367, 23.0069]}, "properties": {"state": "Madhya Pradesh", "asset_type": "water", "name": "madhya_pradesh_water_3", "area_ha": null, "description": "Bargi Dam"}}, {"type": "Feature", "geometry": {"type": "Point", "coordinates": [74.8421, 24.367]}, "properties": {"state": "Madhya Pradesh", "asset_type": "water", "name": "madhya_pradesh_water_4", "area_ha": null, "description": "Barna Dam"}}]}