{"type": "FeatureCollection", "features": [{"type": "Feature", "geometry": {"type": "Point", "coordinates": [85.8333, 20.2833]}, "properties": {"state": "Odisha", "asset_type": "agriculture", "name": "odisha_agriculture_0", "area_ha": null, "description": "Bhubaneswar Agricultural Area"}}, {"type": "Feature", "geometry": {"type": "Point", "coordinates": [85.3667, 19.8333]}, "properties": {"state": "Odisha", "asset_type": "agriculture", "name": "odisha_agriculture_1", "area_ha": null, "description": "Cuttack Agricultural Area"}}, {"type": "Feature", "geometry": {"type": "Point", "coordinates": [85.8167, 21.55]}, "properties": {"state": "Odisha", "asset_type": "agriculture", "name": "odisha_agriculture_2", "area_ha": null, "description": "Sambalpur Agricultural Area"}}, {"type": "Feature", "geometry": {"type": "Point", "coordinates": [85.0833, 20.2167]}, "properties": {"state": "Odisha", "asset_type": "agriculture", "name": "odisha_agriculture_3", "area_ha": null, "description": "Dhenkanal Agricultural Area"}}, {"type": "Feature", "geometry": {"type": "Point", "coordinates": [84.9167, 20.8833]}, "properties": {"state": "Odisha", "asset_type": "agriculture", "name": "odisha_agriculture_4", "area_ha": null, "description": "Angul Agricultural Area"}}]}