{"type": "FeatureCollection", "features": [{"type": "Feature", "geometry": {"type": "Point", "coordinates": [20.3167, 85.9667]}, "properties": {"state": "Odisha", "asset_type": "forest", "name": "odisha_forest_0", "area_ha": null, "description": "Odisha Semi-evergreen Forests"}}, {"type": "Feature", "geometry": {"type": "Point", "coordinates": [20.7533, 85.8283]}, "properties": {"state": "Odisha", "asset_type": "forest", "name": "odisha_forest_1", "area_ha": null, "description": "Simlipal National Park"}}, {"type": "Feature", "geometry": {"type": "Point", "coordinates": [21.83, 86.26]}, "properties": {"state": "Odisha", "asset_type": "forest", "name": "odisha_forest_2", "area_ha": null, "description": "Bhitar Kanika Wildlife Sanctuary"}}, {"type": "Feature", "geometry": {"type": "Point", "coordinates": [19.5, 84.9167]}, "properties": {"state": "Odisha", "asset_type": "forest", "name": "odisha_forest_3", "area_ha": null, "description": "Baripada Forest Area"}}, {"type": "Feature", "geometry": {"type": "Point", "coordinates": [20.2833, 84.7667]}, "properties": {"state": "Odisha", "asset_type": "forest", "name": "odisha_forest_4", "area_ha": null, "description": "Mayurbhanj Forest Area"}}]}