{"type": "FeatureCollection", "features": [{"type": "Feature", "geometry": {"type": "Point", "coordinates": [20.1933, 85.8667]}, "properties": {"state": "Odisha", "asset_type": "water", "name": "odisha_water_0", "area_ha": null, "description": "Mahanadi River"}}, {"type": "Feature", "geometry": {"type": "Point", "coordinates": [19.98, 85.8194]}, "properties": {"state": "Odisha", "asset_type": "water", "name": "odisha_water_1", "area_ha": null, "description": "Chilika Lake"}}, {"type": "Feature", "geometry": {"type": "Point", "coordinates": [21.46, 86.8483]}, "properties": {"state": "Odisha", "asset_type": "water", "name": "odisha_water_2", "area_ha": null, "description": "Brahmani River"}}, {"type": "Feature", "geometry": {"type": "Point", "coordinates": [20.657, 86.5933]}, "properties": {"state": "Odisha", "asset_type": "water", "name": "odisha_water_3", "area_ha": null, "description": "Baitarani River"}}, {"type": "Feature", "geometry": {"type": "Point", "coordinates": [20.2733, 85.8283]}, "properties": {"state": "Odisha", "asset_type": "water", "name": "odisha_water_4", "area_ha": null, "description": "Subarnarekha River"}}]}