{"type": "FeatureCollection", "features": [{"type": "Feature", "geometry": {"type": "Point", "coordinates": [91.284, 23.832]}, "properties": {"state": "Tripura", "asset_type": "agriculture", "name": "tripura_agriculture_0", "area_ha": null, "description": "Agartala Agricultural Area"}}, {"type": "Feature", "geometry": {"type": "Point", "coordinates": [91.3, 24.0]}, "properties": {"state": "Tripura", "asset_type": "agriculture", "name": "tripura_agriculture_1", "area_ha": null, "description": "Udaipur Agricultural Area"}}, {"type": "Feature", "geometry": {"type": "Point", "coordinates": [91.399, 23.777]}, "properties": {"state": "Tripura", "asset_type": "agriculture", "name": "tripura_agriculture_2", "area_ha": null, "description": "Kailashahar Agricultural Area"}}, {"type": "Feature", "geometry": {"type": "Point", "coordinates": [91.276, 23.527]}, "properties": {"state": "Tripura", "asset_type": "agriculture", "name": "tripura_agriculture_3", "area_ha": null, "description": "Dharmanagar Agricultural Area"}}, {"type": "Feature", "geometry": {"type": "Point", "coordinates": [91.578, 23.889]}, "properties": {"state": "Tripura", "asset_type": "agriculture", "name": "tripura_agriculture_4", "area_ha": null, "description": "Belonia Agricultural Area"}}]}