{"type": "FeatureCollection", "features": [{"type": "Feature", "geometry": {"type": "Point", "coordinates": [23.9659, 92.2773]}, "properties": {"state": "Tripura", "asset_type": "forest", "name": "tripura_forest_0", "area_ha": null, "description": "Jampui Hills Forest"}}, {"type": "Feature", "geometry": {"type": "Point", "coordinates": [23.5667, 91.2943]}, "properties": {"state": "Tripura", "asset_type": "forest", "name": "tripura_forest_1", "area_ha": null, "description": "Sepahijala Wildlife Sanctuary"}}, {"type": "Feature", "geometry": {"type": "Point", "coordinates": [23.86, 91.271]}, "properties": {"state": "Tripura", "asset_type": "forest", "name": "tripura_forest_2", "area_ha": null, "description": "Ramnagar Reserve Forest"}}, {"type": "Feature", "geometry": {"type": "Point", "coordinates": [23.53, 91.83]}, "properties": {"state": "Tripura", "asset_type": "forest", "name": "tripura_forest_3", "area_ha": null, "description": "Trishna Wildlife Sanctuary"}}, {"type": "Feature", "geometry": {"type": "Point", "coordinates": [23.7817, 91.522]}, "properties": {"state": "Tripura", "asset_type": "forest", "name": "tripura_forest_4", "area_ha": null, "description": "Rajbari Reserve Forest"}}]}