{"type": "FeatureCollection", "features": [{"type": "Feature", "geometry": {"type": "Point", "coordinates": [23.8301, 91.2993]}, "properties": {"state": "Tripura", "asset_type": "water", "name": "tripura_water_0", "area_ha": null, "description": "Dhalai River"}}, {"type": "Feature", "geometry": {"type": "Point", "coordinates": [23.61, 91.765]}, "properties": {"state": "Tripura", "asset_type": "water", "name": "tripura_water_1", "area_ha": null, "description": "Howrah River"}}, {"type": "Feature", "geometry": {"type": "Point", "coordinates": [23.5, 91.64]}, "properties": {"state": "Tripura", "asset_type": "water", "name": "tripura_water_2", "area_ha": null, "description": "Karnaphuli River"}}, {"type": "Feature", "geometry": {"type": "Point", "coordinates": [23.9, 91.8]}, "properties": {"state": "Tripura", "asset_type": "water", "name": "tripura_water_3", "area_ha": null, "description": "Fatik Cherra River"}}, {"type": "Feature", "geometry": {"type": "Point", "coordinates": [23.86, 91.45]}, "properties": {"state": "Tripura", "asset_type": "water", "name": "tripura_water_4", "area_ha": null, "description": "Noa Deo River"}}]}