{"type": "FeatureCollection", "features": [{"type": "Feature", "geometry": {"type": "Point", "coordinates": [78.4867, 17.385]}, "properties": {"state": "Telangana", "asset_type": "agriculture", "name": "telangana_agriculture_0", "area_ha": null, "description": "Hyderabad Agricultural Area"}}, {"type": "Feature", "geometry": {"type": "Point", "coordinates": [78.1124, 16.792]}, "properties": {"state": "Telangana", "asset_type": "agriculture", "name": "telangana_agriculture_1", "area_ha": null, "description": "Warangal Agricultural Area"}}, {"type": "Feature", "geometry": {"type": "Point", "coordinates": [79.2818, 17.1917]}, "properties": {"state": "Telangana", "asset_type": "agriculture", "name": "telangana_agriculture_2", "area_ha": null, "description": "Khammam Agricultural Area"}}, {"type": "Feature", "geometry": {"type": "Point", "coordinates": [78.1147, 17.9909]}, "properties": {"state": "Telangana", "asset_type": "agriculture", "name": "telangana_agriculture_3", "area_ha": null, "description": "Karimnagar Agricultural Area"}}, {"type": "Feature", "geometry": {"type": "Point", "coordinates": [79.5926, 18.0069]}, "properties": {"state": "Telangana", "asset_type": "agriculture", "name": "telangana_agriculture_4", "area_ha": null, "description": "Nalgonda Agricultural Area"}}]}