{"type": "FeatureCollection", "features": [{"type": "Feature", "geometry": {"type": "Point", "coordinates": [79.0547, 17.631]}, "properties": {"state": "Telangana", "asset_type": "forest", "name": "telangana_forest_0", "area_ha": null, "description": "Kawal Wildlife Sanctuary"}}, {"type": "Feature", "geometry": {"type": "Point", "coordinates": [79.3106, 17.6965]}, "properties": {"state": "Telangana", "asset_type": "forest", "name": "telangana_forest_1", "area_ha": null, "description": "Eturnagaram Wildlife Sanctuary"}}, {"type": "Feature", "geometry": {"type": "Point", "coordinates": [78.6593, 17.5417]}, "properties": {"state": "Telangana", "asset_type": "forest", "name": "telangana_forest_2", "area_ha": null, "description": "Dornala Forest"}}, {"type": "Feature", "geometry": {"type": "Point", "coordinates": [79.243, 17.2157]}, "properties": {"state": "Telangana", "asset_type": "forest", "name": "telangana_forest_3", "area_ha": null, "description": "Amrabad Tiger Reserve"}}, {"type": "Feature", "geometry": {"type": "Point", "coordinates": [78.6227, 17.1881]}, "properties": {"state": "Telangana", "asset_type": "forest", "name": "telangana_forest_4", "area_ha": null, "description": "Manjira Wildlife Sanctuary"}}]}