{"type": "FeatureCollection", "features": [{"type": "Feature", "geometry": {"type": "Point", "coordinates": [78.4022, 17.4626]}, "properties": {"state": "Telangana", "asset_type": "water", "name": "telangana_water_0", "area_ha": null, "description": "Jurala Project Reservoir"}}, {"type": "Feature", "geometry": {"type": "Point", "coordinates": [78.885, 17.9121]}, "properties": {"state": "Telangana", "asset_type": "water", "name": "telangana_water_1", "area_ha": null, "description": "Kinnerasani Dam"}}, {"type": "Feature", "geometry": {"type": "Point", "coordinates": [78.66, 17.1211]}, "properties": {"state": "Telangana", "asset_type": "water", "name": "telangana_water_2", "area_ha": null, "description": "Pochampadu Reservoir"}}, {"type": "Feature", "geometry": {"type": "Point", "coordinates": [79.2771, 17.0375]}, "properties": {"state": "Telangana", "asset_type": "water", "name": "telangana_water_3", "area_ha": null, "description": "Sriramsagar Reservoir"}}, {"type": "Feature", "geometry": {"type": "Point", "coordinates": [78.9823, 17.4455]}, "properties": {"state": "Telangana", "asset_type": "water", "name": "telangana_water_4", "area_ha": null, "description": "Nallamalla Forest Reservoir"}}]}